NORAD_CAT_ID,OBJECT_NAME,OBJECT_TYPE,EPOCH,MEAN_MOTION,ECCENTRICITY,INCLINATION,RA_OF_ASC_NODE,ARG_OF_PERICENTER,MEAN_ANOMALY,BSTAR,MEAN_MOTION_DOT,MEAN_MOTION_DDOT,TLE_LINE0,TLE_LINE1,TLE_LINE2,SEMIMAJOR_AXIS,PERIOD,APOGEE,PERIGEE,DECAYED
52333.0,STARLINK-3847,PAYLOAD,2023-10-07 05:13:07,15.08844024,0.0001178,53.2156,219.6715,92.7371,267.3756,3.5781e-05,2.82e-06,0.0,0 STARLINK-3847,1 52333U 22045C   23280.21744680  .00000282  00000-0  35781-4 0  9996,2 52333  53.2156 219.6715 0001178  92.7371 267.3756 15.08844024 82100,6917.868,95.437,540.548,538.918,0.0
52333.0,STARLINK-3847,PAYLOAD,2023-10-07 19:31:36,15.0883492,0.0001464,53.2163,216.9926,92.1971,267.9188,6.7257e-05,7.82e-06,0.0,0 STARLINK-3847,1 52333U 22045C   23280.81361599  .00000782  00000-0  67257-4 0  9994,2 52333  53.2163 216.9926 0001464  92.1971 267.9188 15.08834920 82198,6917.896,95.438,540.774,538.748,0.0
52333.0,STARLINK-3847,PAYLOAD,2023-10-08 05:03:54,15.08845498,0.000142,53.2157,215.2097,99.5753,260.54,6.1712e-05,6.94e-06,0.0,0 STARLINK-3847,1 52333U 22045C   23281.21105075  .00000694  00000-0  61712-4 0  9996,2 52333  53.2157 215.2097 0001420  99.5753 260.5400 15.08845498 82258,6917.864,95.437,540.711,538.746,0.0
52333.0,STARLINK-3847,PAYLOAD,2023-10-08 13:00:50,15.08845158,0.0001119,53.217,213.7229,106.6671,253.4444,6.2157e-05,7.02e-06,0.0,0 STARLINK-3847,1 52333U 22045C   23281.54224970  .00000702  00000-0  62157-4 0  9992,2 52333  53.2170 213.7229 0001119 106.6671 253.4444 15.08845158 82305,6917.865,95.437,540.504,538.956,0.0
52333.0,STARLINK-3847,PAYLOAD,2023-10-09 12:51:38,15.08833275,0.0002255,53.2166,209.2632,86.3522,273.7728,2.2655e-06,-2.52e-06,0.0,0 STARLINK-3847,1 52333U 22045C   23282.53586014 -.00000252  00000-0  22655-5 0  9993,2 52333  53.2166 209.2632 0002255  86.3522 273.7728 15.08833275 82452,6917.901,95.438,541.326,538.206,0.0
52333.0,STARLINK-3847,PAYLOAD,2023-10-09 19:13:10,15.08836172,0.0001859,53.217,208.0715,93.5921,266.5283,-0.00011344,-2.093e-05,0.0,0 STARLINK-3847,1 52333U 22045C   23282.80081575 -.00002093  00000-0 -11344-3 0  9992,2 52333  53.2170 208.0715 0001859  93.5921 266.5283 15.08836172 82497,6917.892,95.438,541.043,538.471,0.0
52333.0,STARLINK-3847,PAYLOAD,2023-10-10 04:45:29,15.0884215,0.0001798,53.2163,206.2878,98.701,261.4186,9.2026e-05,1.177e-05,0.0,0 STARLINK-3847,1 52333U 22045C   23283.19825450  .00001177  00000-0  92026-4 0  9990,2 52333  53.2163 206.2878 0001798  98.7010 261.4186 15.08842150 82553,6917.874,95.437,540.983,538.495,0.0
52333.0,STARLINK-3847,PAYLOAD,2023-10-10 22:14:44,15.0883482,0.0001458,53.2147,203.0178,106.2568,253.8585,7.687e-05,9.35e-06,0.0,0 STARLINK-3847,1 52333U 22045C   23283.92690065  .00000935  00000-0  76870-4 0  9993,2 52333  53.2147 203.0178 0001458 106.2568 253.8585 15.08834820 82664,6917.896,95.438,540.77,538.753,0.0
52333.0,STARLINK-3847,PAYLOAD,2023-10-11 01:25:30,15.08838583,0.0001336,53.2167,202.4238,99.5715,260.5428,0.00026802,3.98e-05,0.0,0 STARLINK-3847,1 52333U 22045C   23284.05938051  .00003980  00000-0  26802-3 0  9990,2 52333  53.2167 202.4238 0001336  99.5715 260.5428 15.08838583 82682,6917.885,95.438,540.674,538.825,0.0
52333.0,STARLINK-3847,PAYLOAD,2023-10-11 04:36:16,15.08839031,0.0001269,53.2166,201.8281,97.4058,262.7078,0.00058356,9.011e-05,0.0,0 STARLINK-3847,1 52333U 22045C   23284.19186252  .00009011  00000-0  58356-3 0  9993,2 52333  53.2166 201.8281 0001269  97.4058 262.7078 15.08839031 82701,6917.883,95.438,540.626,538.87,0.0
52333.0,STARLINK-3847,PAYLOAD,2023-10-11 18:54:45,15.08838032,0.0001577,53.2161,199.1522,96.274,263.8432,0.0003473,5.243e-05,0.0,0 STARLINK-3847,1 52333U 22045C   23284.78802675  .00005243  00000-0  34730-3 0  9995,2 52333  53.2161 199.1522 0001577  96.2740 263.8432 15.08838032 82795,6917.886,95.438,540.842,538.66,0.0
52333.0,STARLINK-3847,PAYLOAD,2023-10-12 10:48:36,15.08850794,0.0001398,53.2173,196.1804,90.3536,269.7617,0.00060574,9.368e-05,0.0,0 STARLINK-3847,1 52333U 22045C   23285.45042376  .00009368  00000-0  60574-3 0  9991,2 52333  53.2173 196.1804 0001398  90.3536 269.7617 15.08850794 82897,6917.847,95.437,540.68,538.745,0.0
52333.0,STARLINK-3847,PAYLOAD,2023-10-12 21:56:18,15.08847718,0.0001509,53.2179,194.0999,93.6899,266.4266,0.00027768,4.135e-05,0.0,0 STARLINK-3847,1 52333U 22045C   23285.91410310  .00004135  00000-0  27768-3 0  9994,2 52333  53.2179 194.0999 0001509  93.6899 266.4266 15.08847718 82961,6917.857,95.437,540.766,538.678,0.0
52333.0,STARLINK-3847,PAYLOAD,2023-10-13 01:07:04,15.08853539,0.0001505,53.2185,193.5081,101.1316,258.9845,0.00035783,5.414e-05,0.0,0 STARLINK-3847,1 52333U 22045C   23286.04658153  .00005414  00000-0  35783-3 0  9995,2 52333  53.2185 193.5081 0001505 101.1316 258.9845 15.08853539 82988,6917.839,95.437,540.745,538.663,0.0
52333.0,STARLINK-3847,PAYLOAD,2023-10-13 10:39:23,15.08849142,0.0001286,53.2161,191.7223,92.2286,267.8854,0.00013835,1.915e-05,0.0,0 STARLINK-3847,1 52333U 22045C   23286.44401987  .00001915  00000-0  13835-3 0  9996,2 52333  53.2161 191.7223 0001286  92.2286 267.8854 15.08849142 83044,6917.852,95.437,540.607,538.828,0.0
52333.0,STARLINK-3847,PAYLOAD,2023-10-13 21:47:06,15.08813541,0.0001526,53.2181,189.6409,102.9178,257.1985,-0.00049375,-8.132e-05,0.0,0 STARLINK-3847,1 52333U 22045C   23286.90771596 -.00008132  00000-0 -49375-3 0  9991,2 52333  53.2181 189.6409 0001526 102.9178 257.1985 15.08813541 83113,6917.961,95.439,540.882,538.771,0.0
52333.0,STARLINK-3847,PAYLOAD,2023-10-14 02:33:16,15.08825113,0.0001635,53.2177,188.7486,107.3151,252.8021,-0.00011912,-2.183e-05,0.0,0 STARLINK-3847,1 52333U 22045C   23287.10643585 -.00002183  00000-0 -11912-3 0  9996,2 52333  53.2177 188.7486 0001635 107.3151 252.8021 15.08825113 83148,6917.926,95.438,540.922,538.66,0.0
52333.0,STARLINK-3847,PAYLOAD,2023-10-14 10:30:11,15.08840612,0.0001713,53.2176,187.2612,99.7429,260.3756,0.00022938,3.364e-05,0.0,0 STARLINK-3847,1 52333U 22045C   23287.43763411  .00003364  00000-0  22938-3 0  9993,2 52333  53.2176 187.2612 0001713  99.7429 260.3756 15.08840612 83196,6917.879,95.438,540.929,538.558,0.0
52333.0,STARLINK-3847,PAYLOAD,2023-10-14 21:37:53,15.0885736,0.0001366,53.2155,185.1804,109.9317,250.1822,0.0010436,0.00016368,0.0,0 STARLINK-3847,1 52333U 22045C   23287.90131239  .00016368  00000-0  10436-2 0  9999,2 52333  53.2155 185.1804 0001366 109.9317 250.1822 15.08857360 83264,6917.827,95.436,540.637,538.747,0.0
52333.0,STARLINK-3847,PAYLOAD,2023-10-15 02:24:02,15.08885161,0.0001517,53.2161,184.2857,101.0425,259.0737,0.002055,0.0003261,0.0,0 STARLINK-3847,1 52333U 22045C   23288.10002830  .00032610  00000-0  20550-2 0  9992,2 52333  53.2161 184.2857 0001517 101.0425 259.0737 15.08885161 83296,6917.742,95.435,540.657,538.558,0.0
52333.0,STARLINK-3847,PAYLOAD,2023-10-15 10:20:58,15.08866676,0.0001753,53.2158,182.7984,88.2088,271.9105,0.00095005,0.00014875,0.0,0 STARLINK-3847,1 52333U 22045C   23288.43122875  .00014875  00000-0  95005-3 0  9991,2 52333  53.2158 182.7984 0001753  88.2088 271.9105 15.08866676 83347,6917.799,95.436,540.877,538.451,0.0
52333.0,STARLINK-3847,PAYLOAD,2023-10-15 16:42:30,15.08860097,0.0002318,53.2157,181.6109,87.1517,272.9741,0.00096187,0.00015062,0.0,0 STARLINK-3847,1 52333U 22045C   23288.69618965  .00015062  00000-0  96187-3 0  9990,2 52333  53.2157 181.6109 0002318  87.1517 272.9741 15.08860097 83388,6917.819,95.436,541.288,538.08,0.0
52333.0,STARLINK-3847,PAYLOAD,2023-10-15 21:28:40,15.08852177,0.0001817,53.2157,180.7173,90.449,269.6711,0.001098,0.00017236,0.0,0 STARLINK-3847,1 52333U 22045C   23288.89490899  .00017236  00000-0  10980-2 0  9997,2 52333  53.2157 180.7173 0001817  90.4490 269.6711 15.08852177 83413,6917.843,95.437,540.965,538.451,0.0
52333.0,STARLINK-3847,PAYLOAD,2023-10-16 00:39:26,15.08853844,0.0001423,53.2158,180.1226,95.6113,264.5041,0.0014454,0.00022799,0.0,0 STARLINK-3847,1 52333U 22045C   23289.02738789  .00022799  00000-0  14454-2 0  9996,2 52333  53.2158 180.1226 0001423  95.6113 264.5041 15.08853844 83433,6917.838,95.437,540.687,538.719,0.0
52333.0,STARLINK-3847,PAYLOAD,2023-10-16 10:11:45,15.08858701,0.0001359,53.2155,178.3385,97.4199,262.6947,0.001606,0.00025377,0.0,0 STARLINK-3847,1 52333U 22045C   23289.42482767  .00025377  00000-0  16060-2 0  9992,2 52333  53.2155 178.3385 0001359  97.4199 262.6947 15.08858701 83494,6917.823,95.436,540.628,538.748,0.0
52333.0,STARLINK-3847,PAYLOAD,2023-10-16 16:33:17,15.08855008,0.0001501,53.2152,177.1498,100.3063,259.8098,0.0010907,0.0001712,0.0,0 STARLINK-3847,1 52333U 22045C   23289.68978695  .00017120  00000-0  10907-2 0  9991,2 52333  53.2152 177.1498 0001501 100.3063 259.8098 15.08855008 83533,6917.835,95.437,540.738,538.661,0.0
52333.0,STARLINK-3847,PAYLOAD,2023-10-18 01:56:23,15.0884703,0.0001602,53.2158,170.9053,90.2382,269.8794,0.00030081,4.504e-05,0.0,0 STARLINK-3847,1 52333U 22045C   23291.08082448  .00004504  00000-0  30081-3 0  9998,2 52333  53.2158 170.9053 0001602  90.2382 269.8794 15.08847030 83743,6917.859,95.437,540.832,538.616,0.0
52333.0,STARLINK-3847,PAYLOAD,2023-10-18 19:25:38,15.08840711,0.0002009,53.2123,167.6362,90.3917,269.7306,0.00021351,3.112e-05,0.0,0 STARLINK-3847,1 52333U 22045C   23291.80946769  .00003112  00000-0  21351-3 0  9997,2 52333  53.2123 167.6362 0002009  90.3917 269.7306 15.08840711 83857,6917.878,95.438,541.133,538.353,0.0
52333.0,STARLINK-3847,PAYLOAD,2023-10-18 22:36:23,15.08845367,0.0001459,53.2155,167.0394,93.6391,266.4768,0.00011941,1.613e-05,0.0,0 STARLINK-3847,1 52333U 22045C   23291.94194366  .00001613  00000-0  11941-3 0  9998,2 52333  53.2155 167.0394 0001459  93.6391 266.4768 15.08845367 83871,6917.864,95.437,540.738,538.72,0.0
52333.0,STARLINK-3847,PAYLOAD,2023-10-19 22:27:10,15.0885286,0.0001044,53.2161,162.5797,91.1007,269.0105,0.00025523,3.778e-05,0.0,0 STARLINK-3847,1 52333U 22045C   23292.93553784  .00003778  00000-0  25523-3 0  9996,2 52333  53.2161 162.5797 0001044  91.1007 269.0105 15.08852860 84020,6917.841,95.437,540.428,538.984,0.0
